{"type": "FeatureCollection", "features": [{"id": "623", "type": "Feature", "properties": {"CLV_ACUI": "1501", "NOM_ACUI": "VALLE DE TOLUCA", "DMA_NEGATI": -128.71556, "RECARGA_TO": 336.8}, "geometry": {"type": "Polygon", "coordinates": [[[-99.3564538894128, 19.306954857076306], [-99.35031207383582, 19.294283074049016], [-99.36438094163334, 19.278105723510365], [-99.33942464905677, 19.267634944304184], [-99.34200338749133, 19.241026844186273], [-99.31571191850398, 19.228297878064183], [-99.27945609292455, 19.131218736092997], [-99.28533085263176, 19.132530916260638], [-99.3038096136269, 19.12217640655779], [-99.31627626720505, 19.101711556703], [-99.31932804748608, 19.079734270491542], [-99.54502288280456, 19.092957363207244], [-99.57233765960927, 19.064668962427028], [-99.75715279147707, 19.108466817136378], [-100.00352238524087, 19.382668355696403], [-99.94791723238711, 19.401202210524495], [-99.91803328053398, 19.498478460637674], [-99.88841019117407, 19.53581591087279], [-99.70522586256465, 19.530919278081427], [-99.5167669132171, 19.58511519810573], [-99.50205929541752, 19.558135291246916], [-99.42881281718459, 19.48165714134195], [-99.3711165004328, 19.441562579630602], [-99.40185376561176, 19.349405086893945], [-99.3564538894128, 19.306954857076306]]]}}, {"id": "624", "type": "Feature", "properties": {"CLV_ACUI": "0901", "NOM_ACUI": "ZONA METROPOLITANA DE LA CD. DE MEXICO", "DMA_NEGATI": -480.429914, "RECARGA_TO": 512.8}, "geometry": {"type": "Polygon", "coordinates": [[[-98.92294712875406, 19.30894899072394], [-98.96955921121852, 19.290655288478003], [-98.97570086083263, 19.252861972092315], [-98.96595028459203, 19.24983136282338], [-98.96856718884284, 19.231971834351803], [-98.94049040985884, 19.22255958500524], [-98.94293948375814, 19.215458875228347], [-98.95098866831385, 19.217728493702516], [-98.96756767812694, 19.210873796388572], [-98.96518720917462, 19.18509536050592], [-98.9525297474267, 19.16841835685077], [-98.96704878253347, 19.164437894455023], [-98.95386488457709, 19.149486955875236], [-98.96822369833369, 19.144848491610237], [-98.95800005261205, 19.12203584965909], [-98.95931993235402, 19.103930290376336], [-98.96788025532054, 19.083482612918278], [-98.9790346483483, 19.07467871290915], [-98.98506963469045, 19.079423948989714], [-99.02858862532038, 19.085620542550863], [-99.04355779393256, 19.075796256124182], [-99.06008335907828, 19.04889441999944], [-99.13606616601848, 19.088271445617742], [-99.22587366612412, 19.096054796166445], [-99.27945609292455, 19.13121873609311], [-99.31571191850394, 19.228297878064176], [-99.34200338749133, 19.241026844186326], [-99.33942464905668, 19.267634944304252], [-99.36438094163329, 19.27810572351037], [-99.34990771324814, 19.29720308023663], [-99.4018537656117, 19.349405086894063], [-99.37111650043276, 19.441562579630705], [-99.42881281718452, 19.481657141342062], [-99.2781490222019, 19.591816169040346], [-99.12342494206187, 19.592505519090693], [-99.11779432309181, 19.588748237344834], [-99.01715543795109, 19.587209882125386], [-99.01426106788713, 19.486603505684474], [-99.04754007725317, 19.44434659287759], [-99.03336673529567, 19.402987135057067], [-99.02402856068616, 19.39183482330599], [-98.97180241483282, 19.367050593585393], [-98.92294712875406, 19.30894899072394]]]}}]}